CTC2_L_00342001-01
1 42073U 25906JT  26037.47793981  .00000000  00000+0  00000-0 0  9993
2 42073  60.0000   0.0000 0000000   0.0000   0.0000 13.42494869    15
CTC2_L_00342001-02
1 42074U 25611RA  26037.47793981  .00000000  00000+0  00000-0 0  9997
2 42074  60.0000   0.0000 0000000   0.0000  90.0000 13.42494869    15
CTC2_L_00342001-03
1 42075U 25057NF  26037.47793981  .00000000  00000+0  00000-0 0  9992
2 42075  60.0000   0.0000 0000000   0.0000 180.0000 13.42494869    16
CTC2_L_00342001-04
1 42076U 25163YV  26037.47793981  .00000000  00000+0  00000-0 0  9991
2 42076  60.0000   0.0000 0000000   0.0000 270.0000 13.42494869    17
CTC2_L_00342002-01
1 42077U 22843DW  26037.47793981  .00000000  00000+0  00000-0 0  9994
2 42077  60.0000  12.0000 0000000   0.0000  12.0000 13.42494869    15
CTC2_L_00342002-02
1 42078U 23504YF  26037.47793981  .00000000  00000+0  00000-0 0  9990
2 42078  60.0000  12.0000 0000000   0.0000 102.0000 13.42494869    16
CTC2_L_00342002-03
1 42079U 22665KR  26037.47793981  .00000000  00000+0  00000-0 0  9998
2 42079  60.0000  12.0000 0000000   0.0000 192.0000 13.42494869    16
CTC2_L_00342002-04
1 42080U 26571HB  26037.47793981  .00000000  00000+0  00000-0 0  9990
2 42080  60.0000  12.0000 0000000   0.0000 282.0000 13.42494869    18
CTC2_L_00342003-01
1 42081U 24573EY  26037.47793981  .00000000  00000+0  00000-0 0  9991
2 42081  60.0000  24.0000 0000000   0.0000  24.0000 13.42494869    16
CTC2_L_00342003-02
1 42082U 24316AY  26037.47793981  .00000000  00000+0  00000-0 0  9997
2 42082  60.0000  24.0000 0000000   0.0000 114.0000 13.42494869    17
CTC2_L_00342003-03
1 42083U 26549NY  26037.47793981  .00000000  00000+0  00000-0 0  9998
2 42083  60.0000  24.0000 0000000   0.0000 204.0000 13.42494869    18
CTC2_L_00342003-04
1 42084U 25043XE  26037.47793981  .00000000  00000+0  00000-0 0  9997
2 42084  60.0000  24.0000 0000000   0.0000 294.0000 13.42494869    18
CTC2_L_00342004-01
1 42085U 24609WB  26037.47793981  .00000000  00000+0  00000-0 0  9995
2 42085  60.0000  36.0000 0000000   0.0000  36.0000 13.42494869    16
CTC2_L_00342004-02
1 42086U 23760AG  26037.47793981  .00000000  00000+0  00000-0 0  9993
2 42086  60.0000  36.0000 0000000   0.0000 126.0000 13.42494869    17
CTC2_L_00342004-03
1 42087U 26162YW  26037.47793981  .00000000  00000+0  00000-0 0  9993
2 42087  60.0000  36.0000 0000000   0.0000 216.0000 13.42494869    18
CTC2_L_00342004-04
1 42088U 22060UR  26037.47793981  .00000000  00000+0  00000-0 0  9997
2 42088  60.0000  36.0000 0000000   0.0000 306.0000 13.42494869    19
CTC2_L_00342005-01
1 42089U 22708AW  26037.47793981  .00000000  00000+0  00000-0 0  9997
2 42089  60.0000  48.0000 0000000   0.0000  48.0000 13.42494869    16
CTC2_L_00342005-02
1 42090U 25229FE  26037.47793981  .00000000  00000+0  00000-0 0  9990
2 42090  60.0000  48.0000 0000000   0.0000 138.0000 13.42494869    18
CTC2_L_00342005-03
1 42091U 26557RV  26037.47793981  .00000000  00000+0  00000-0 0  9996
2 42091  60.0000  48.0000 0000000   0.0000 228.0000 13.42494869    19
CTC2_L_00342005-04
1 42092U 22501FN  26037.47793981  .00000000  00000+0  00000-0 0  9992
2 42092  60.0000  48.0000 0000000   0.0000 318.0000 13.42494869    10
CTC2_L_00342006-01
1 42093U 22205GK  26037.47793981  .00000000  00000+0  00000-0 0  9994
2 42093  60.0000  60.0000 0000000   0.0000  60.0000 13.42494869    19
CTC2_L_00342006-02
1 42094U 25243LD  26037.47793981  .00000000  00000+0  00000-0 0  9990
2 42094  60.0000  60.0000 0000000   0.0000 150.0000 13.42494869    10
CTC2_L_00342006-03
1 42095U 24569JP  26037.47793981  .00000000  00000+0  00000-0 0  9991
2 42095  60.0000  60.0000 0000000   0.0000 240.0000 13.42494869    11
CTC2_L_00342006-04
1 42096U 26392LZ  26037.47793981  .00000000  00000+0  00000-0 0  9998
2 42096  60.0000  60.0000 0000000   0.0000 330.0000 13.42494869    12
CTC2_L_00342007-01
1 42097U 22679JS  26037.47793981  .00000000  00000+0  00000-0 0  9993
2 42097  60.0000  72.0000 0000000   0.0000  72.0000 13.42494869    19
CTC2_L_00342007-02
1 42098U 22210OY  26037.47793981  .00000000  00000+0  00000-0 0  9995
2 42098  60.0000  72.0000 0000000   0.0000 162.0000 13.42494869    10
CTC2_L_00342007-03
1 42099U 22044BH  26037.47793981  .00000000  00000+0  00000-0 0  9991
2 42099  60.0000  72.0000 0000000   0.0000 252.0000 13.42494869    11
CTC2_L_00342007-04
1 42100U 22745JY  26037.47793981  .00000000  00000+0  00000-0 0  9992
2 42100  60.0000  72.0000 0000000   0.0000 342.0000 13.42494869    14
CTC2_L_00342008-01
1 42101U 22019JA  26037.47793981  .00000000  00000+0  00000-0 0  9997
2 42101  60.0000  84.0000 0000000   0.0000  84.0000 13.42494869    11
CTC2_L_00342008-02
1 42102U 25982AQ  26037.47793981  .00000000  00000+0  00000-0 0  9990
2 42102  60.0000  84.0000 0000000   0.0000 174.0000 13.42494869    12
CTC2_L_00342008-03
1 42103U 26774DY  26037.47793981  .00000000  00000+0  00000-0 0  9991
2 42103  60.0000  84.0000 0000000   0.0000 264.0000 13.42494869    13
CTC2_L_00342008-04
1 42104U 23927H   26037.47793981  .00000000  00000+0  00000-0 0  9999
2 42104  60.0000  84.0000 0000000   0.0000 354.0000 13.42494869    14
CTC2_L_00342009-01
1 42105U 25536TD  26037.47793981  .00000000  00000+0  00000-0 0  9998
2 42105  60.0000  96.0000 0000000   0.0000  96.0000 13.42494869    11
CTC2_L_00342009-02
1 42106U 25618TH  26037.47793981  .00000000  00000+0  00000-0 0  9990
2 42106  60.0000  96.0000 0000000   0.0000 186.0000 13.42494869    12
CTC2_L_00342009-03
1 42107U 25174GX  26037.47793981  .00000000  00000+0  00000-0 0  9998
2 42107  60.0000  96.0000 0000000   0.0000 276.0000 13.42494869    13
CTC2_L_00342009-04
1 42108U 26587EJ  26037.47793981  .00000000  00000+0  00000-0 0  9998
2 42108  60.0000  96.0000 0000000   0.0000   6.0000 13.42494869    15
CTC2_L_00342010-01
1 42109U 23025WW  26037.47793981  .00000000  00000+0  00000-0 0  9993
2 42109  60.0000 108.0000 0000000   0.0000 108.0000 13.42494869    13
CTC2_L_00342010-02
1 42110U 23791XR  26037.47793981  .00000000  00000+0  00000-0 0  9995
2 42110  60.0000 108.0000 0000000   0.0000 198.0000 13.42494869    14
CTC2_L_00342010-03
1 42111U 26136ZP  26037.47793981  .00000000  00000+0  00000-0 0  9992
2 42111  60.0000 108.0000 0000000   0.0000 288.0000 13.42494869    15
CTC2_L_00342010-04
1 42112U 23213TX  26037.47793981  .00000000  00000+0  00000-0 0  9996
2 42112  60.0000 108.0000 0000000   0.0000  18.0000 13.42494869    17
CTC2_L_00342011-01
1 42113U 26470WO  26037.47793981  .00000000  00000+0  00000-0 0  9995
2 42113  60.0000 120.0000 0000000   0.0000 120.0000 13.42494869    16
CTC2_L_00342011-02
1 42114U 24585AW  26037.47793981  .00000000  00000+0  00000-0 0  9991
2 42114  60.0000 120.0000 0000000   0.0000 210.0000 13.42494869    17
CTC2_L_00342011-03
1 42115U 25094UQ  26037.47793981  .00000000  00000+0  00000-0 0  9998
2 42115  60.0000 120.0000 0000000   0.0000 300.0000 13.42494869    18
CTC2_L_00342011-04
1 42116U 24997ZM  26037.47793981  .00000000  00000+0  00000-0 0  9990
2 42116  60.0000 120.0000 0000000   0.0000  30.0000 13.42494869    19
CTC2_L_00342012-01
1 42117U 22873IA  26037.47793981  .00000000  00000+0  00000-0 0  9992
2 42117  60.0000 132.0000 0000000   0.0000 132.0000 13.42494869    16
CTC2_L_00342012-02
1 42118U 23812MX  26037.47793981  .00000000  00000+0  00000-0 0  9997
2 42118  60.0000 132.0000 0000000   0.0000 222.0000 13.42494869    17
CTC2_L_00342012-03
1 42119U 25542RA  26037.47793981  .00000000  00000+0  00000-0 0  9990
2 42119  60.0000 132.0000 0000000   0.0000 312.0000 13.42494869    18
CTC2_L_00342012-04
1 42120U 24119NZ  26037.47793981  .00000000  00000+0  00000-0 0  9991
2 42120  60.0000 132.0000 0000000   0.0000  42.0000 13.42494869    10
CTC2_L_00342013-01
1 42121U 23655SC  26037.47793981  .00000000  00000+0  00000-0 0  9996
2 42121  60.0000 144.0000 0000000   0.0000 144.0000 13.42494869    17
CTC2_L_00342013-02
1 42122U 24949XX  26037.47793981  .00000000  00000+0  00000-0 0  9994
2 42122  60.0000 144.0000 0000000   0.0000 234.0000 13.42494869    18
CTC2_L_00342013-03
1 42123U 25908NC  26037.47793981  .00000000  00000+0  00000-0 0  9991
2 42123  60.0000 144.0000 0000000   0.0000 324.0000 13.42494869    19
CTC2_L_00342013-04
1 42124U 24448PV  26037.47793981  .00000000  00000+0  00000-0 0  9990
2 42124  60.0000 144.0000 0000000   0.0000  54.0000 13.42494869    10
CTC2_L_00342014-01
1 42125U 26765AE  26037.47793981  .00000000  00000+0  00000-0 0  9995
2 42125  60.0000 156.0000 0000000   0.0000 156.0000 13.42494869    17
CTC2_L_00342014-02
1 42126U 24848IR  26037.47793981  .00000000  00000+0  00000-0 0  9996
2 42126  60.0000 156.0000 0000000   0.0000 246.0000 13.42494869    18
CTC2_L_00342014-03
1 42127U 23963PD  26037.47793981  .00000000  00000+0  00000-0 0  9994
2 42127  60.0000 156.0000 0000000   0.0000 336.0000 13.42494869    19
CTC2_L_00342014-04
1 42128U 25732IB  26037.47793981  .00000000  00000+0  00000-0 0  9991
2 42128  60.0000 156.0000 0000000   0.0000  66.0000 13.42494869    10
CTC2_L_00342015-01
1 42129U 23598TQ  26037.47793981  .00000000  00000+0  00000-0 0  9990
2 42129  60.0000 168.0000 0000000   0.0000 168.0000 13.42494869    17
CTC2_L_00342015-02
1 42130U 24411ZX  26037.47793981  .00000000  00000+0  00000-0 0  9997
2 42130  60.0000 168.0000 0000000   0.0000 258.0000 13.42494869    19
CTC2_L_00342015-03
1 42131U 25947HH  26037.47793981  .00000000  00000+0  00000-0 0  9993
2 42131  60.0000 168.0000 0000000   0.0000 348.0000 13.42494869    10
CTC2_L_00342015-04
1 42132U 26291TE  26037.47793981  .00000000  00000+0  00000-0 0  9997
2 42132  60.0000 168.0000 0000000   0.0000  78.0000 13.42494869    11
CTC2_L_00342016-01
1 42133U 26182YS  26037.47793981  .00000000  00000+0  00000-0 0  9997
2 42133  60.0000 180.0000 0000000   0.0000 180.0000 13.42494869    10
CTC2_L_00342016-02
1 42134U 23659VA  26037.47793981  .00000000  00000+0  00000-0 0  9994
2 42134  60.0000 180.0000 0000000   0.0000 270.0000 13.42494869    11
